NORAD_CAT_ID,OBJECT_NAME,OBJECT_TYPE,EPOCH,MEAN_MOTION,ECCENTRICITY,INCLINATION,RA_OF_ASC_NODE,ARG_OF_PERICENTER,MEAN_ANOMALY,BSTAR,MEAN_MOTION_DOT,MEAN_MOTION_DDOT,TLE_LINE0,TLE_LINE1,TLE_LINE2,SEMIMAJOR_AXIS,PERIOD,APOGEE,PERIGEE,DECAYED
53988.0,STARLINK-5113,PAYLOAD,2023-09-22 02:26:00,15.0883873,0.0001578,53.2159,292.6461,92.0923,268.0249,0.00025671,3.8e-05,0.0,0 STARLINK-5113,1 53988U 22125AA  23265.10139092  .00003800  00000-0  25671-3 0  9993,2 53988  53.2159 292.6461 0001578  92.0923 268.0249 15.08838730 53727,6917.884,95.438,540.841,538.658,0.0
53988.0,STARLINK-5113,PAYLOAD,2023-09-22 11:58:18,15.08851096,0.0001582,53.2157,290.8607,91.355,268.7623,0.00038157,5.792e-05,0.0,0 STARLINK-5113,1 53988U 22125AA  23265.49882631  .00005792  00000-0  38157-3 0  9994,2 53988  53.2157 290.8607 0001582  91.3550 268.7623 15.08851096 53701,6917.846,95.437,540.806,538.617,0.0
53988.0,STARLINK-5113,PAYLOAD,2023-09-22 18:19:50,15.08871317,0.0001293,53.2165,289.6747,82.4731,277.6408,0.0006481,0.0001005,0.0,0 STARLINK-5113,1 53988U 22125AA  23265.76377456  .00010050  00000-0  64810-3 0  9996,2 53988  53.2165 289.6747 0001293  82.4731 277.6408 15.08871317 53823,6917.785,95.436,540.544,538.755,0.0
53988.0,STARLINK-5113,PAYLOAD,2023-09-23 02:16:44,15.08894993,0.0001473,53.2169,288.1859,77.624,282.4917,0.0010331,0.00016217,0.0,0 STARLINK-5113,1 53988U 22125AA  23266.09496128  .00016217  00000-0  10331-2 0  9990,2 53988  53.2169 288.1859 0001473  77.6240 282.4917 15.08894993 53875,6917.712,95.434,540.596,538.558,0.0
53988.0,STARLINK-5113,PAYLOAD,2023-09-23 07:02:54,15.08861693,0.0001309,53.2162,287.2949,83.2903,276.8238,-0.0003433,-5.751e-05,0.0,0 STARLINK-5113,1 53988U 22125AA  23266.29368611 -.00005751  00000-0 -34330-3 0  9996,2 53988  53.2162 287.2949 0001309  83.2903 276.8238 15.08861693 53903,6917.814,95.436,540.585,538.774,0.0
53988.0,STARLINK-5113,PAYLOAD,2023-09-23 18:10:36,15.08839548,0.0001407,53.2159,285.2098,75.1781,284.9367,-0.00051561,-8.484e-05,0.0,0 STARLINK-5113,1 53988U 22125AA  23266.75737107 -.00008484  00000-0 -51561-3 0  9998,2 53988  53.2159 285.2098 0001407  75.1781 284.9367 15.08839548 53979,6917.882,95.438,540.72,538.773,0.0
53988.0,STARLINK-5113,PAYLOAD,2023-09-24 10:04:29,15.08828443,0.0001624,53.2164,282.2403,95.5388,264.5789,-0.00022808,-3.915e-05,0.0,0 STARLINK-5113,1 53988U 22125AA  23267.41978656 -.00003915  00000-0 -22808-3 0  9994,2 53988  53.2164 282.2403 0001624  95.5388 264.5789 15.08828443 54078,6917.916,95.438,540.904,538.657,0.0
53988.0,STARLINK-5113,PAYLOAD,2023-09-25 00:22:57,15.08840563,0.0001407,53.2171,279.5634,92.9192,267.1961,-8.8831e-05,-1.701e-05,0.0,0 STARLINK-5113,1 53988U 22125AA  23268.01594213 -.00001701  00000-0 -88831-4 0  9994,2 53988  53.2171 279.5634 0001407  92.9192 267.1961 15.08840563 54162,6917.879,95.438,540.717,538.77,0.0
53988.0,STARLINK-5113,PAYLOAD,2023-09-25 08:19:53,15.08847764,0.0001621,53.216,278.0775,85.71,274.4077,0.00071505,0.00011113,0.0,0 STARLINK-5113,1 53988U 22125AA  23268.34714661  .00011113  00000-0  71505-3 0  9996,2 53988  53.2160 278.0775 0001621  85.7100 274.4077 15.08847764 54133,6917.857,95.437,540.843,538.6,0.0
53988.0,STARLINK-5113,PAYLOAD,2023-09-25 17:52:12,15.08843239,0.0001589,53.2145,276.2933,80.484,279.6331,0.000567,8.748e-05,0.0,0 STARLINK-5113,1 53988U 22125AA  23268.74458990  .00008748  00000-0  56700-3 0  9990,2 53988  53.2145 276.2933 0001589  80.4840 279.6331 15.08843239 54197,6917.87,95.437,540.835,538.636,0.0
53988.0,STARLINK-5113,PAYLOAD,2023-09-26 08:10:40,15.08842312,0.0001669,53.2151,273.6167,83.0822,277.036,0.00028861,4.308e-05,0.0,0 STARLINK-5113,1 53988U 22125AA  23269.34075046  .00004308  00000-0  28861-3 0  9999,2 53988  53.2151 273.6167 0001669  83.0822 277.0360 15.08842312 54366,6917.873,95.437,540.893,538.584,0.0
53988.0,STARLINK-5113,PAYLOAD,2023-09-27 00:04:32,15.0883982,0.0001863,53.2153,270.6438,81.4432,278.6771,9.1114e-05,1.162e-05,0.0,0 STARLINK-5113,1 53988U 22125AA  23270.00315178  .00001162  00000-0  91114-4 0  9994,2 53988  53.2153 270.6438 0001863  81.4432 278.6771 15.08839820 54465,6917.881,95.438,541.035,538.457,0.0
53988.0,STARLINK-5113,PAYLOAD,2023-09-27 09:36:51,15.08842296,0.0001666,53.2149,268.8572,80.927,279.1911,7.5952e-05,9.21e-06,0.0,0 STARLINK-5113,1 53988U 22125AA  23270.40059107  .00000921  00000-0  75952-4 0  9999,2 53988  53.2149 268.8572 0001666  80.9270 279.1911 15.08842296 54444,6917.873,95.437,540.891,538.586,0.0
53988.0,STARLINK-5113,PAYLOAD,2023-09-27 23:55:19,15.0883375,0.0002163,53.2148,266.1809,92.0859,268.0381,2.923e-05,1.77e-06,0.0,0 STARLINK-5113,1 53988U 22125AA  23270.99675919  .00000177  00000-0  29230-4 0  9999,2 53988  53.2148 266.1809 0002163  92.0859 268.0381 15.08833750 54619,6917.899,95.438,541.261,538.268,0.0
53988.0,STARLINK-5113,PAYLOAD,2023-09-28 09:27:38,15.0883575,0.0001563,53.2163,264.3962,97.5863,262.5307,2.6178e-05,1.29e-06,0.0,0 STARLINK-5113,1 53988U 22125AA  23271.39419823  .00000129  00000-0  26178-4 0  9999,2 53988  53.2163 264.3962 0001563  97.5863 262.5307 15.08835750 54590,6917.893,95.438,540.84,538.677,0.0
53988.0,STARLINK-5113,PAYLOAD,2023-09-29 09:18:25,15.08845622,0.0001449,53.216,259.9339,99.8577,260.2578,0.00014503,2.021e-05,0.0,0 STARLINK-5113,1 53988U 22125AA  23272.38779189  .00002021  00000-0  14503-3 0  9994,2 53988  53.2160 259.9339 0001449  99.8577 260.2578 15.08845622 54825,6917.863,95.437,540.731,538.726,0.0
53988.0,STARLINK-5113,PAYLOAD,2023-09-30 04:23:02,15.08844631,0.0001394,53.2156,256.364,99.7318,260.3831,0.00016512,2.341e-05,0.0,0 STARLINK-5113,1 53988U 22125AA  23273.18267344  .00002341  00000-0  16512-3 0  9995,2 53988  53.2156 256.3640 0001394  99.7318 260.3831 15.08844631 54942,6917.866,95.437,540.696,538.767,0.0
53988.0,STARLINK-5113,PAYLOAD,2023-10-01 02:38:27,15.08835711,0.0001721,53.2169,252.2065,105.8729,254.2453,-0.00018773,-3.274e-05,0.0,0 STARLINK-5113,1 53988U 22125AA  23274.11003889 -.00003274  00000-0 -18773-3 0  9990,2 53988  53.2169 252.2065 0001721 105.8729 254.2453 15.08835711 55088,6917.893,95.438,540.949,538.568,0.0
53988.0,STARLINK-5113,PAYLOAD,2023-10-01 05:49:13,15.08842584,0.0001505,53.2166,251.6115,87.79,272.3264,-7.4535e-05,-1.474e-05,0.0,0 STARLINK-5113,1 53988U 22125AA  23274.24252172 -.00001474  00000-0 -74535-4 0  9994,2 53988  53.2166 251.6115 0001505  87.7900 272.3264 15.08842584 55024,6917.872,95.437,540.779,538.696,0.0
53988.0,STARLINK-5113,PAYLOAD,2023-10-02 07:15:23,15.08842028,0.0001501,53.2161,246.8534,117.7438,242.3706,0.00036524,5.53e-05,0.0,0 STARLINK-5113,1 53988U 22125AA  23275.30235871  .00005530  00000-0  36524-3 0  9999,2 53988  53.2161 246.8534 0001501 117.7438 242.3706 15.08842028 55263,6917.874,95.437,540.778,538.701,0.0
53988.0,STARLINK-5113,PAYLOAD,2023-10-02 15:12:19,15.08838758,0.0001558,53.2164,245.3618,88.6857,271.4313,3.7592e-05,3.1e-06,0.0,0 STARLINK-5113,1 53988U 22125AA  23275.63355817  .00000310  00000-0  37592-4 0  9996,2 53988  53.2164 245.3618 0001558  88.6857 271.4313 15.08838758 55235,6917.884,95.438,540.827,538.671,0.0
53988.0,STARLINK-5113,PAYLOAD,2023-10-03 03:55:24,15.08841041,0.0001494,53.2164,242.9833,96.4069,263.7093,0.00013046,1.789e-05,0.0,0 STARLINK-5113,1 53988U 22125AA  23276.16347940  .00001789  00000-0  13046-3 0  9991,2 53988  53.2164 242.9833 0001494  96.4069 263.7093 15.08841041 55393,6917.877,95.437,540.776,538.709,0.0
53988.0,STARLINK-5113,PAYLOAD,2023-10-03 07:06:10,15.08845547,0.0001433,53.2157,242.3904,92.8006,267.315,0.00021401,3.12e-05,0.0,0 STARLINK-5113,1 53988U 22125AA  23276.29595902  .00003120  00000-0  21401-3 0  9993,2 53988  53.2157 242.3904 0001433  92.8006 267.3150 15.08845547 55335,6917.863,95.437,540.72,538.737,0.0
53988.0,STARLINK-5113,PAYLOAD,2023-10-03 15:03:06,15.08836688,0.0001452,53.2161,240.904,89.277,270.8388,4.6873e-05,4.58e-06,0.0,0 STARLINK-5113,1 53988U 22125AA  23276.62716299  .00000458  00000-0  46873-4 0  9996,2 53988  53.2161 240.9040 0001452  89.2770 270.8388 15.08836688 55387,6917.891,95.438,540.76,538.751,0.0
53988.0,STARLINK-5113,PAYLOAD,2023-10-04 06:56:58,15.08842337,0.0001525,53.2165,237.9292,93.1752,266.9414,5.0831e-05,5.21e-06,0.0,0 STARLINK-5113,1 53988U 22125AA  23277.28956328  .00000521  00000-0  50831-4 0  9998,2 53988  53.2165 237.9292 0001525  93.1752 266.9414 15.08842337 55486,6917.873,95.437,540.793,538.683,0.0
53988.0,STARLINK-5113,PAYLOAD,2023-10-04 14:53:54,15.08840316,0.0001486,53.2164,236.4418,94.2696,265.8466,3.9771e-05,3.45e-06,0.0,0 STARLINK-5113,1 53988U 22125AA  23277.62076511  .00000345  00000-0  39771-4 0  9997,2 53988  53.2164 236.4418 0001486  94.2696 265.8466 15.08840316 55530,6917.879,95.438,540.772,538.716,0.0
53988.0,STARLINK-5113,PAYLOAD,2023-10-05 03:36:58,15.08850144,0.0001299,53.2159,234.0632,97.5584,262.5556,0.00018576,2.671e-05,0.0,0 STARLINK-5113,1 53988U 22125AA  23278.15068110  .00002671  00000-0  18576-3 0  9995,2 53988  53.2159 234.0632 0001299  97.5584 262.5556 15.08850144 55691,6917.849,95.437,540.613,538.816,0.0
53988.0,STARLINK-5113,PAYLOAD,2023-10-05 06:47:45,15.08852365,0.000139,53.2146,233.468,101.1684,258.9464,0.00035966,5.443e-05,0.0,0 STARLINK-5113,1 53988U 22125AA  23278.28316113  .00005443  00000-0  35966-3 0  9990,2 53988  53.2146 233.4680 0001390 101.1684 258.9464 15.08852365 55636,6917.843,95.437,540.669,538.746,0.0
53988.0,STARLINK-5113,PAYLOAD,2023-10-05 14:44:40,15.08851505,0.0001264,53.2154,231.9825,96.1648,263.9489,0.00032585,4.903e-05,0.0,0 STARLINK-5113,1 53988U 22125AA  23278.61436092  .00004903  00000-0  32585-3 0  9990,2 53988  53.2154 231.9825 0001264  96.1648 263.9489 15.08851505 55685,6917.845,95.437,540.585,538.836,0.0
53988.0,STARLINK-5113,PAYLOAD,2023-10-06 01:52:22,15.08848693,0.0001656,53.2159,229.8999,97.5078,262.6102,0.00026326,3.905e-05,0.0,0 STARLINK-5113,1 53988U 22125AA  23279.07804206  .00003905  00000-0  26326-3 0  9994,2 53988  53.2159 229.8999 0001656  97.5078 262.6102 15.08848693 55834,6917.854,95.437,540.864,538.573,0.0
